{
  "type": "FeatureCollection",
  "features": [
    {
      "type": "Feature",
      "properties": {
        "id": "P-001",
        "name": "北门，信息牌",
        "temperature_c": 22.4
      },
      "geometry": {
        "type": "Point",
        "coordinates": [121.4737, 31.2304]
      }
    },
    {
      "type": "Feature",
      "properties": {
        "id": "P-002",
        "name": "河岸观测点",
        "temperature_c": null
      },
      "geometry": {
        "type": "Point",
        "coordinates": [121.4789, 31.2281]
      }
    },
    {
      "type": "Feature",
      "properties": {
        "id": "P-003",
        "name": "林下步道",
        "temperature_c": 21.8
      },
      "geometry": {
        "type": "Point",
        "coordinates": [121.4691, 31.2355]
      }
    }
  ]
}
